{"spkid": "54017655", "covariance": {"elements": [{"label": "e", "name": "e", "sigma": 1.23928434887925e-07, "title": "eccentricity", "value": ".2741440290827101", "units": null}, {"sigma": 1.73102123748619e-07, "name": "q", "title": "perihelion distance", "value": "1.020434048158515", "units": "au", "label": "q"}, {"label": "tp", "sigma": 0.000134273929532339, "name": "tp", "units": "TDB", "title": "time of perihelion passage", "value": "2459601.103108008235"}, {"label": "node", "value": "104.2559375494457", "title": "longitude of the ascending node", "units": "deg", "sigma": 4.10509143312095e-05, "name": "om"}, {"name": "w", "sigma": 0.000140431194266009, "units": "deg", "value": "140.7218653485814", "title": "argument of perihelion", "label": "peri"}, {"label": "i", "units": "deg", "title": "inclination", "value": "16.78214426204436", "name": "i", "sigma": 6.35879521074809e-05}], "data": [["1.535825697377055E-14", "-2.144419061834895E-14", "-4.702044880150044E-12", "-5.541037161784063E-13", "-5.597460996313469E-12", "-2.393268412997808E-13"], ["-2.144419061834895E-14", "2.996434524628234E-14", "6.12126468765584E-12", "9.033382820595467E-13", "7.363390073046614E-12", "5.440393158290539E-13"], ["-4.702044880150044E-12", "6.12126468765584E-12", "1.802948815205548E-8", "-4.923628153608706E-9", "1.880263227392055E-8", "-7.87496347346808E-9"], ["-5.541037161784063E-13", "9.033382820595467E-13", "-4.923628153608706E-9", "1.685177567428305E-9", "-5.12552893764346E-9", "2.48936874526057E-9"], ["-5.597460996313469E-12", "7.363390073046614E-12", "1.880263227392055E-8", "-5.12552893764346E-9", "1.972092032297761E-8", "-8.117190695258949E-9"], ["-2.393268412997808E-13", "5.440393158290539E-13", "-7.87496347346808E-9", "2.48936874526057E-9", "-8.117190695258949E-9", "4.043427653223278E-9"]], "labels": ["e", "q", "tp", "node", "peri", "i"], "epoch": "2459554.5"}, "elements": [{"value": ".2740060289513558", "title": "eccentricity", "units": null, "name": "e", "sigma": "1.2401E-7", "label": "e"}, {"name": "a", "sigma": "9.615E-9", "units": "au", "value": "1.405397333962523", "title": "semi-major axis", "label": "a"}, {"name": "q", "sigma": "1.7341E-7", "units": "au", "title": "perihelion distance", "value": "1.02030999138463", "label": "q"}, {"label": "i", "value": "16.78851582743566", "title": "inclination; angle with respect to x-y ecliptic plane", "units": "deg", "name": "i", "sigma": "6.3564E-5"}, {"name": "om", "sigma": "4.1182E-5", "units": "deg", "title": "longitude of the ascending node", "value": "104.2109281789702", "label": "node"}, {"sigma": ".00014049", "name": "w", "title": "argument of perihelion", "value": "140.7821218705323", "units": "deg", "label": "peri"}, {"label": "M", "name": "ma", "sigma": "7.357E-5", "units": "deg", "title": "mean anomaly", "value": "225.7891809380646"}, {"units": "TDB", "value": "2461427.372648446296", "title": "time of perihelion passage", "sigma": ".00012236", "name": "tp", "label": "tp"}, {"units": "d", "title": "sidereal orbital period", "value": "608.5511884326975", "sigma": "6.2451E-6", "name": "per", "label": "period"}, {"label": "n", "sigma": "6.0708E-9", "name": "n", "units": "deg/d", "title": "mean motion", "value": ".5915689704380787"}, {"units": "au", "title": "aphelion distance", "value": "1.790484676540417", "sigma": "1.225E-8", "name": "ad", "label": "Q"}], "epoch": "2461200.5"}